     3.02           N: GNSS NAV DATA    R: GLONASS          RINEX VERSION / TYPE
Spider v7.5.1.8670  SMO                 20210611 000827 UTC PGM / RUN BY / DATE
GLUT  3.0267983675D-08 0.000000000D+00      0    0          TIME SYSTEM CORR
    18    18  1929     7                                    LEAP SECONDS
                                                            END OF HEADER
R24 2021 06 10 10 15 00 4.597660154104D-05 1.818989403546D-12 3.816000000000D+05
     2.130694824219D+03-2.464912414551D+00 3.725290298462D-09 0.000000000000D+00
     1.161406689453D+04 1.872929573059D+00 0.000000000000D+00 2.000000000000D+00
     2.261847265625D+04-7.308120727539D-01-0.000000000000D+00 0.000000000000D+00
R22 2021 06 10 10 15 00-1.169685274363D-04-9.094947017729D-13 3.816000000000D+05
    -2.132430029297D+04 6.918497085571D-01-1.862645149231D-09 0.000000000000D+00
     1.319267187500D+04-2.055044174194D-01-2.793967723846D-09-3.000000000000D+00
    -4.970057617188D+03-3.519600868225D+00-9.313225746155D-10 0.000000000000D+00
R08 2021 06 10 10 15 00-5.942303687334D-05 0.000000000000D+00 3.816000000000D+05
    -9.263441894531D+03-3.450641632080D-01 1.862645149231D-09 0.000000000000D+00
     9.329376953125D+03-2.965737342834D+00-0.000000000000D+00 6.000000000000D+00
     2.192181103516D+04 1.117680549622D+00-1.862645149231D-09 0.000000000000D+00
R02 2021 06 10 10 15 00 4.818532615900D-04 9.094947017729D-13 3.816000000000D+05
     6.712363769531D+03 3.006668090820D-01 1.862645149231D-09 0.000000000000D+00
     2.337444335938D+04 1.036610603333D+00-9.313225746155D-10-4.000000000000D+00
    -7.746723144531D+03 3.362890243530D+00 1.862645149231D-09 0.000000000000D+00
R01 2021 06 10 10 15 00 8.064601570368D-05 0.000000000000D+00 3.816000000000D+05
    -2.727357421875D+03-1.514244079590D-01 2.793967723846D-09 0.000000000000D+00
     2.197046142578D+04-1.730163574219D+00-9.313225746155D-10 1.000000000000D+00
     1.266135449219D+04 2.972508430481D+00-0.000000000000D+00 0.000000000000D+00
R23 2021 06 10 10 15 00-7.444061338902D-06-0.000000000000D+00 3.816000000000D+05
    -1.067516455078D+04-1.635100364685D+00 1.862645149231D-09 0.000000000000D+00
     1.686598242188D+04 1.452397346497D+00-9.313225746155D-10 3.000000000000D+00
     1.586974218750D+04-2.640643119812D+00-9.313225746155D-10 0.000000000000D+00
R24 2021 06 10 10 45 00 4.597939550877D-05 1.818989403546D-12 3.834000000000D+05
    -1.869884277344D+03-1.951815605164D+00 2.793967723846D-09 0.000000000000D+00
     1.514441503906D+04 2.007303237915D+00-9.313225746155D-10 2.000000000000D+00
     2.044639257813D+04-1.667005538940D+00-9.313225746155D-10 0.000000000000D+00
R22 2021 06 10 10 45 00-1.169703900814D-04-9.094947017729D-13 3.834000000000D+05
    -1.955390625000D+04 1.235274314880D+00-2.793967723846D-09 0.000000000000D+00
     1.222211914063D+04-8.913221359253D-01-2.793967723846D-09-3.000000000000D+00
    -1.103307910156D+04-3.173624992371D+00-9.313225746155D-10 0.000000000000D+00
R08 2021 06 10 10 45 00-5.942210555077D-05 0.000000000000D+00 3.834000000000D+05
    -1.031007910156D+04-8.150272369385D-01 9.313225746155D-10 0.000000000000D+00
     3.883819824219D+03-3.033900260925D+00-0.000000000000D+00 6.000000000000D+00
     2.306585253906D+04 1.452827453613D-01-1.862645149231D-09 0.000000000000D+00
R02 2021 06 10 10 45 00 4.818569868803D-04 9.094947017729D-13 3.834000000000D+05
     7.221281738281D+03 2.233562469482D-01 2.793967723846D-09 0.000000000000D+00
     2.444964550781D+04 1.556854248047D-01-9.313225746155D-10-4.000000000000D+00
    -1.472694824219D+03 3.563044548035D+00 1.862645149231D-09 0.000000000000D+00
R23 2021 06 10 10 45 00-7.444992661476D-06-0.000000000000D+00 3.834000000000D+05
    -1.294169580078D+04-8.828096389771D-01 0.000000000000D+00 0.000000000000D+00
     1.927058984375D+04 1.172876358032D+00-1.862645149231D-09 3.000000000000D+00
     1.056403857422D+04-3.216246604919D+00-9.313225746155D-10 0.000000000000D+00
R01 2021 06 10 10 45 00 8.064694702625D-05 0.000000000000D+00 3.834000000000D+05
    -3.372363769531D+03-5.873832702637D-01 2.793967723846D-09 0.000000000000D+00
     1.829224072266D+04-2.316865921021D+00-9.313225746155D-10 1.000000000000D+00
     1.745304052734D+04 2.317050933838D+00-9.313225746155D-10 0.000000000000D+00
R17 2021 06 10 10 45 00 4.314482212067D-04 2.728484105319D-12 3.849300000000D+05
     1.225885498047D+04-2.205486297607D+00 4.656612873077D-09 0.000000000000D+00
     2.066551269531D+03 2.112196922302D+00 1.862645149231D-09 4.000000000000D+00
     2.228101562500D+04 1.014248847961D+00 0.000000000000D+00 0.000000000000D+00
R24 2021 06 10 11 15 00 4.598218947649D-05 1.818989403546D-12 3.852000000000D+05
    -4.824911621094D+03-1.321015357971D+00 1.862645149231D-09 0.000000000000D+00
     1.867575732422D+04 1.868834495544D+00-1.862645149231D-09 2.000000000000D+00
     1.669453369141D+04-2.474726676941D+00-9.313225746155D-10 0.000000000000D+00
R22 2021 06 10 11 15 00-1.169731840491D-04-9.094947017729D-13 3.852000000000D+05
    -1.703572998047D+04 1.516181945801D+00-3.725290298462D-09 0.000000000000D+00
     9.950452636719D+03-1.632445335388D+00-1.862645149231D-09-3.000000000000D+00
    -1.624836669922D+04-2.583703041077D+00-9.313225746155D-10 0.000000000000D+00
R17 2021 06 10 11 15 00 4.314538091421D-04 2.728484105319D-12 3.852000000000D+05
     8.492749023438D+03-1.939921379089D+00 4.656612873077D-09 0.000000000000D+00
     6.270312500000D+03 2.523365974426D+00 0.000000000000D+00 4.000000000000D+00
     2.322239160156D+04 2.483940124512D-02-0.000000000000D+00 0.000000000000D+00
R02 2021 06 10 11 15 00 4.818597808480D-04 1.818989403546D-12 3.852000000000D+05
     7.371655761719D+03-9.377479553223D-02 2.793967723846D-09 0.000000000000D+00
     2.396157275391D+04-6.811132431030D-01-1.862645149231D-09-4.000000000000D+00
     4.914969726563D+03 3.488464355469D+00 9.313225746155D-10 0.000000000000D+00
R08 2021 06 10 11 15 00-5.942117422819D-05 0.000000000000D+00 3.852000000000D+05
    -1.215513037109D+04-1.214652061462D+00 0.000000000000D+00 0.000000000000D+00
    -1.413449707031D+03-2.804883956909D+00 0.000000000000D+00 6.000000000000D+00
     2.243798095703D+04-8.384981155396D-01-2.793967723846D-09 0.000000000000D+00
R23 2021 06 10 11 15 00-7.446855306625D-06-0.000000000000D+00 3.852000000000D+05
    -1.388658642578D+04-1.855697631836D-01-0.000000000000D+00 0.000000000000D+00
     2.093006689453D+04 6.311025619507D-01-2.793967723846D-09 3.000000000000D+00
     4.441024902344D+03-3.542885780334D+00-9.313225746155D-10 0.000000000000D+00
R01 2021 06 10 11 15 00 8.064787834883D-05 0.000000000000D+00 3.852000000000D+05
    -4.892768066406D+03-1.107454299927D+00 1.862645149231D-09 0.000000000000D+00
     1.379081250000D+04-2.636543273926D+00-9.313225746155D-10 1.000000000000D+00
     2.089514990234D+04 1.482743263245D+00-9.313225746155D-10 0.000000000000D+00
R24 2021 06 10 11 45 00 4.598498344421D-05 1.818989403546D-12 3.870000000000D+05
    -6.621723632813D+03-6.837368011475D-01 0.000000000000D+00 0.000000000000D+00
     2.170267871094D+04 1.449362754822D+00-1.862645149231D-09 2.000000000000D+00
     1.165226416016D+04-3.091463088989D+00-9.313225746155D-10 0.000000000000D+00
R17 2021 06 10 11 45 00 4.314593970776D-04 2.728484105319D-12 3.870000000000D+05
     5.391563964844D+03-1.481308937073D+00 3.725290298462D-09 0.000000000000D+00
     1.100070019531D+04 2.685861587524D+00-9.313225746155D-10 4.000000000000D+00
     2.236890869141D+04-9.671039581299D-01-0.000000000000D+00 0.000000000000D+00
R02 2021 06 10 11 45 00 4.818635061383D-04 1.818989403546D-12 3.870000000000D+05
     6.766005371094D+03-6.058063507080D-01 2.793967723846D-09 0.000000000000D+00
     2.208918164063D+04-1.366225242615D+00-1.862645149231D-09-4.000000000000D+00
     1.092437060547D+04 3.145560264587D+00 0.000000000000D+00 0.000000000000D+00
R08 2021 06 10 11 45 00-5.942024290562D-05 0.000000000000D+00 3.870000000000D+05
    -1.458194189453D+04-1.447045326233D+00-0.000000000000D+00 0.000000000000D+00
    -6.061667968750D+03-2.323635101318D+00 0.000000000000D+00 6.000000000000D+00
     2.008559667969D+04-1.758537292480D+00-2.793967723846D-09 0.000000000000D+00
R23 2021 06 10 11 45 00-7.447786629200D-06-0.000000000000D+00 3.870000000000D+05
    -1.370551220703D+04 3.530979156494D-01-1.862645149231D-09 0.000000000000D+00
     2.142118164063D+04-1.117601394653D-01-1.862645149231D-09 3.000000000000D+00
    -2.025480957031D+03-3.595458984375D+00-9.313225746155D-10 0.000000000000D+00
R01 2021 06 10 11 45 00 8.064880967140D-05 0.000000000000D+00 3.870000000000D+05
    -7.346301757813D+03-1.606035232544D+00 9.313225746155D-10 0.000000000000D+00
     8.978312988281D+03-2.661728858948D+00-9.313225746155D-10 1.000000000000D+00
     2.272219726563D+04 5.341958999634D-01-1.862645149231D-09 0.000000000000D+00
R12 2021 06 10 11 45 00 2.360250800848D-04 2.728484105319D-12 3.879900000000D+05
    -1.773157568359D+04-2.258638381958D+00-4.656612873077D-09 0.000000000000D+00
     8.012361816406D+03 1.333761215210D-01-9.313225746155D-10-1.000000000000D+00
    -1.645757373047D+04 2.495656967163D+00-9.313225746155D-10 0.000000000000D+00
R03 2021 06 10 11 45 00 3.743637353182D-05 0.000000000000D+00 3.882600000000D+05
     1.499380371094D+04 5.818214416504D-01 1.862645149231D-09 0.000000000000D+00
     1.963514355469D+04 6.827545166016D-01-1.862645149231D-09 5.000000000000D+00
    -6.404138183594D+03 3.425385475159D+00 1.862645149231D-09 0.000000000000D+00
R24 2021 06 10 12 15 00 4.598777741194D-05 1.818989403546D-12 3.888000000000D+05
    -7.347570800781D+03-1.477422714233D-01-9.313225746155D-10 0.000000000000D+00
     2.374673486328D+04 7.867221832275D-01-1.862645149231D-09 2.000000000000D+00
     5.708949707031D+03-3.469347953796D+00-9.313225746155D-10 0.000000000000D+00
